[{"OBJECT_NAME":"LEMUR-2-PETERG","OBJECT_ID":"2017-042S","EPOCH":"2026-03-09T11:34:35.656032","MEAN_MOTION":15.29611459,"ECCENTRICITY":0.00037,"INCLINATION":97.398,"RA_OF_ASC_NODE":253.6596,"ARG_OF_PERICENTER":341.6938,"MEAN_ANOMALY":18.4169,"EPHEMERIS_TYPE":0,"CLASSIFICATION_TYPE":"U","NORAD_CAT_ID":42841,"ELEMENT_SET_NO":999,"REV_AT_EPOCH":47317,"BSTAR":0.00081076471,"MEAN_MOTION_DOT":0.0002324,"MEAN_MOTION_DDOT":0},{"OBJECT_NAME":"STARLINK-31093","OBJECT_ID":"2024-002N","EPOCH":"2026-03-09T16:21:38.970720","MEAN_MOTION":15.30187839,"ECCENTRICITY":0.00010032,"INCLINATION":53.1587,"RA_OF_ASC_NODE":230.0175,"ARG_OF_PERICENTER":97.7695,"MEAN_ANOMALY":262.342,"EPHEMERIS_TYPE":0,"CLASSIFICATION_TYPE":"U","NORAD_CAT_ID":58717,"ELEMENT_SET_NO":999,"REV_AT_EPOCH":12201,"BSTAR":5.386983e-6,"MEAN_MOTION_DOT":-1.99e-6,"MEAN_MOTION_DDOT":0}]
